$$SOE
2461281.500000000, A.D. 2026-Aug-29 00:00:00.0000, -4.650342869864510E+09, -3.957722499798502E+09, 1.131454991826499E+08,
2461288.500000000, A.D. 2026-Sep-05 00:00:00.0000, -4.648467630152759E+09, -3.959965856355669E+09, 1.131987272745714E+08,
2461295.500000000, A.D. 2026-Sep-12 00:00:00.0000, -4.646591370289964E+09, -3.962208417388636E+09, 1.132519310233996E+08,
2461302.500000000, A.D. 2026-Sep-19 00:00:00.0000, -4.644714092246045E+09, -3.964450183410437E+09, 1.133051105711775E+08,
2461309.500000000, A.D. 2026-Sep-26 00:00:00.0000, -4.642835797612720E+09, -3.966691155516530E+09, 1.133582660118766E+08,
2461316.500000000, A.D. 2026-Oct-03 00:00:00.0000, -4.640956487533269E+09, -3.968931335149418E+09, 1.134113974010754E+08,
2461323.500000000, A.D. 2026-Oct-10 00:00:00.0000, -4.639076162718867E+09, -3.971170723955989E+09, 1.134645047650831E+08,
2461330.500000000, A.D. 2026-Oct-17 00:00:00.0000, -4.637194823499878E+09, -3.973409323718370E+09, 1.135175881063931E+08,
2461337.500000000, A.D. 2026-Oct-24 00:00:00.0000, -4.635312469887696E+09, -3.975647136380887E+09, 1.135706474014971E+08,
2461344.500000000, A.D. 2026-Oct-31 00:00:00.0000, -4.633429101548368E+09, -3.977884164239744E+09, 1.136236825766516E+08,
2461351.500000000, A.D. 2026-Nov-07 00:00:00.0000, -4.631544717348957E+09, -3.980120410221338E+09, 1.136766934367385E+08,
2461358.500000000, A.D. 2026-Nov-14 00:00:00.0000, -4.629659314275727E+09, -3.982355877361781E+09, 1.137296796015036E+08,
2461365.500000000, A.D. 2026-Nov-21 00:00:00.0000, -4.627772887535954E+09, -3.984590566805761E+09, 1.137826406713090E+08,
2461372.500000000, A.D. 2026-Nov-28 00:00:00.0000, -4.625885432841400E+09, -3.986824477332809E+09, 1.138355764683700E+08,
2461379.500000000, A.D. 2026-Dec-05 00:00:00.0000, -4.623996947253959E+09, -3.989057607067282E+09, 1.138884869681547E+08,
2461386.500000000, A.D. 2026-Dec-12 00:00:00.0000, -4.622107428428529E+09, -3.991289954261095E+09, 1.139413721603389E+08,
2461393.500000000, A.D. 2026-Dec-19 00:00:00.0000, -4.620216874140372E+09, -3.993521517142777E+09, 1.139942320132060E+08,
2461400.500000000, A.D. 2026-Dec-26 00:00:00.0000, -4.618325282239401E+09, -3.995752293700921E+09, 1.140470664838345E+08,
2461407.500000000, A.D. 2027-Jan-02 00:00:00.0000, -4.616432650755814E+09, -3.997982281593055E+09, 1.140998755333307E+08,
2461414.500000000, A.D. 2027-Jan-09 00:00:00.0000, -4.614538978040748E+09, -4.000211478159950E+09, 1.141526591381736E+08,
2461421.500000000, A.D. 2027-Jan-16 00:00:00.0000, -4.612644262907652E+09, -4.002439880536769E+09, 1.142054172952077E+08,
2461428.500000000, A.D. 2027-Jan-23 00:00:00.0000, -4.610748504729814E+09, -4.004667485900858E+09, 1.142581500128632E+08,
2461435.500000000, A.D. 2027-Jan-30 00:00:00.0000, -4.608851703307911E+09, -4.006894291904196E+09, 1.143108572674334E+08,
2461442.500000000, A.D. 2027-Feb-06 00:00:00.0000, -4.606953858084491E+09, -4.009120296950586E+09, 1.143635389131649E+08,
2461449.500000000, A.D. 2027-Feb-13 00:00:00.0000, -4.605054967167252E+09, -4.011345499098075E+09, 1.144161946879134E+08,
2461456.500000000, A.D. 2027-Feb-20 00:00:00.0000, -4.603155028526336E+09, -4.013569894377668E+09, 1.144688244663579E+08,
2461463.500000000, A.D. 2027-Feb-27 00:00:00.0000, -4.601254041970654E+09, -4.015793477742086E+09, 1.145214283699155E+08,
2461470.500000000, A.D. 2027-Mar-06 00:00:00.0000, -4.599352008885747E+09, -4.018016244721978E+09, 1.145740066134565E+08,
2461477.500000000, A.D. 2027-Mar-13 00:00:00.0000, -4.597448931333718E+09, -4.020238191740160E+09, 1.146265594028885E+08,
2461484.500000000, A.D. 2027-Mar-20 00:00:00.0000, -4.595544811644825E+09, -4.022459315918509E+09, 1.146790869188054E+08,
2461491.500000000, A.D. 2027-Mar-27 00:00:00.0000, -4.593639652298738E+09, -4.024679614926452E+09, 1.147315893226664E+08,
2461498.500000000, A.D. 2027-Apr-03 00:00:00.0000, -4.591733455892577E+09, -4.026899086918797E+09, 1.147840667628908E+08,
2461505.500000000, A.D. 2027-Apr-10 00:00:00.0000, -4.589826225134487E+09, -4.029117730539841E+09, 1.148365193770630E+08,
2461512.500000000, A.D. 2027-Apr-17 00:00:00.0000, -4.587917962840682E+09, -4.031335545008052E+09, 1.148889472870009E+08,
2461519.500000000, A.D. 2027-Apr-24 00:00:00.0000, -4.586008671856732E+09, -4.033552530343510E+09, 1.149413505743208E+08,
2461526.500000000, A.D. 2027-May-01 00:00:00.0000, -4.584098354603464E+09, -4.035768687710274E+09, 1.149937292112913E+08,
2461533.500000000, A.D. 2027-May-08 00:00:00.0000, -4.582187011940091E+09, -4.037984019125295E+09, 1.150460829799392E+08,
2461540.500000000, A.D. 2027-May-15 00:00:00.0000, -4.580274642841427E+09, -4.040198525580426E+09, 1.150984115946481E+08,
2461547.500000000, A.D. 2027-May-22 00:00:00.0000, -4.578361246453068E+09, -4.042412206169156E+09, 1.151507149599142E+08,
2461554.500000000, A.D. 2027-May-29 00:00:00.0000, -4.576446823168595E+09, -4.044625059686296E+09, 1.152029931355383E+08,
2461561.500000000, A.D. 2027-Jun-05 00:00:00.0000, -4.574531373843978E+09, -4.046837085568887E+09, 1.152552461841362E+08,
2461568.500000000, A.D. 2027-Jun-12 00:00:00.0000, -4.572614899156682E+09, -4.049048283746529E+09, 1.153074741204762E+08,
2461575.500000000, A.D. 2027-Jun-19 00:00:00.0000, -4.570697399440542E+09, -4.051258654336139E+09, 1.153596769167547E+08,
2461582.500000000, A.D. 2027-Jun-26 00:00:00.0000, -4.568778874716937E+09, -4.053468197442457E+09, 1.154118545169907E+08,
2461589.500000000, A.D. 2027-Jul-03 00:00:00.0000, -4.566859324790174E+09, -4.055676913056009E+09, 1.154640068493245E+08,
2461596.500000000, A.D. 2027-Jul-10 00:00:00.0000, -4.564938749370220E+09, -4.057884801039776E+09, 1.155161338337851E+08,
2461603.500000000, A.D. 2027-Jul-17 00:00:00.0000, -4.563017148186448E+09, -4.060091861243469E+09, 1.155682353792701E+08,
2461610.500000000, A.D. 2027-Jul-24 00:00:00.0000, -4.561094520935949E+09, -4.062298093808188E+09, 1.156203113505068E+08,
2461617.500000000, A.D. 2027-Jul-31 00:00:00.0000, -4.559170866655003E+09, -4.064503499425961E+09, 1.156723614867303E+08,
2461624.500000000, A.D. 2027-Aug-07 00:00:00.0000, -4.557246182714414E+09, -4.066708078402430E+09, 1.157243853847911E+08,
2461631.500000000, A.D. 2027-Aug-14 00:00:00.0000, -4.555320465739841E+09, -4.068911828775998E+09, 1.157763827371564E+08,
2461638.500000000, A.D. 2027-Aug-21 00:00:00.0000, -4.553393713838891E+09, -4.071114746857627E+09, 1.158283534932058E+08,
2461645.500000000, A.D. 2027-Aug-28 00:00:00.0000, -4.551465926703938E+09, -4.073316828988054E+09, 1.158802977274368E+08,
2461652.500000000, A.D. 2027-Sep-04 00:00:00.0000, -4.549537104771779E+09, -4.075518072010133E+09, 1.159322155272872E+08,
2461659.500000000, A.D. 2027-Sep-11 00:00:00.0000, -4.547607248835467E+09, -4.077718473117592E+09, 1.159841069743013E+08,
2461666.500000000, A.D. 2027-Sep-18 00:00:00.0000, -4.545676359975140E+09, -4.079918029730299E+09, 1.160359721530507E+08,
2461673.500000000, A.D. 2027-Sep-25 00:00:00.0000, -4.543744439578959E+09, -4.082116739473412E+09, 1.160878111602073E+08,
2461680.500000000, A.D. 2027-Oct-02 00:00:00.0000, -4.541811489379116E+09, -4.084314600232538E+09, 1.161396241088707E+08,
2461687.500000000, A.D. 2027-Oct-09 00:00:00.0000, -4.539877511480378E+09, -4.086511610288997E+09, 1.161914111254735E+08,
2461694.500000000, A.D. 2027-Oct-16 00:00:00.0000, -4.537942508317908E+09, -4.088707768589638E+09, 1.162431723287537E+08,
2461701.500000000, A.D. 2027-Oct-23 00:00:00.0000, -4.536006482284353E+09, -4.090903075156529E+09, 1.162949077663126E+08,
2461708.500000000, A.D. 2027-Oct-30 00:00:00.0000, -4.534069434651354E+09, -4.093097531025831E+09, 1.163466173241155E+08,
2461715.500000000, A.D. 2027-Nov-06 00:00:00.0000, -4.532131364948790E+09, -4.095291136587421E+09, 1.163983008077526E+08,
2461722.500000000, A.D. 2027-Nov-13 00:00:00.0000, -4.530192272787133E+09, -4.097483890401270E+09, 1.164499582077951E+08,
2461729.500000000, A.D. 2027-Nov-20 00:00:00.0000, -4.528252159220984E+09, -4.099675790676255E+09, 1.165015897044590E+08,
2461736.500000000, A.D. 2027-Nov-27 00:00:00.0000, -4.526311026036187E+09, -4.101866836446849E+09, 1.165531955055077E+08,
2461743.500000000, A.D. 2027-Dec-04 00:00:00.0000, -4.524368874984070E+09, -4.104057027533659E+09, 1.166047757777116E+08,
2461750.500000000, A.D. 2027-Dec-11 00:00:00.0000, -4.522425707513380E+09, -4.106246364251719E+09, 1.166563306436303E+08,
2461757.500000000, A.D. 2027-Dec-18 00:00:00.0000, -4.520481524724928E+09, -4.108434847205514E+09, 1.167078601908631E+08,
2461764.500000000, A.D. 2027-Dec-25 00:00:00.0000, -4.518536327396954E+09, -4.110622477172823E+09, 1.167593644797471E+08,
2461771.500000000, A.D. 2028-Jan-01 00:00:00.0000, -4.516590116039794E+09, -4.112809255062684E+09, 1.168108435469937E+08,
$$EOE